NORAD_CAT_ID,OBJECT_NAME,OBJECT_TYPE,EPOCH,MEAN_MOTION,ECCENTRICITY,INCLINATION,RA_OF_ASC_NODE,ARG_OF_PERICENTER,MEAN_ANOMALY,BSTAR,MEAN_MOTION_DOT,MEAN_MOTION_DDOT,TLE_LINE0,TLE_LINE1,TLE_LINE2,SEMIMAJOR_AXIS,PERIOD,APOGEE,PERIGEE,DECAYED
55768.0,STARLINK-5583,PAYLOAD,2024-02-21 22:19:01,14.9832548,0.0002897,69.999,307.3879,269.436,90.6467,6.386e-05,6.69e-06,0.0,0 STARLINK-5583,1 55768U 23028AD  24052.92987351  .00000669  00000-0  63860-4 0  9991,2 55768  69.9990 307.3879 0002897 269.4360  90.6467 14.98325480 54676,6950.207,96.107,574.085,570.058,0.0
55768.0,STARLINK-5583,PAYLOAD,2024-02-22 09:31:57,14.98328961,0.0002908,69.999,306.2097,269.3943,90.6883,4.2812e-05,4.18e-06,0.0,0 STARLINK-5583,1 55768U 23028AD  24053.39719208  .00000418  00000-0  42812-4 0  9993,2 55768  69.9990 306.2097 0002908 269.3943  90.6883 14.98328961 54742,6950.196,96.107,574.082,570.04,0.0
55768.0,STARLINK-5583,PAYLOAD,2024-02-22 19:08:45,14.98335218,0.0002789,69.999,305.1998,269.5555,90.5284,-3.3597e-05,-4.94e-06,0.0,0 STARLINK-5583,1 55768U 23028AD  24053.79774995 -.00000494  00000-0 -33597-4 0  9997,2 55768  69.9990 305.1998 0002789 269.5555  90.5284 14.98335218 54790,6950.177,96.107,573.98,570.103,0.0
55768.0,STARLINK-5583,PAYLOAD,2024-02-22 22:21:01,14.98335441,0.0002786,69.9991,304.8632,269.7833,90.3007,-2.9076e-05,-4.4e-06,0.0,0 STARLINK-5583,1 55768U 23028AD  24053.93126922 -.00000440  00000-0 -29076-4 0  9992,2 55768  69.9991 304.8632 0002786 269.7833  90.3007 14.98335441 54823,6950.176,96.107,573.977,570.105,0.0
55768.0,STARLINK-5583,PAYLOAD,2024-02-23 09:33:58,14.98336073,0.0002612,69.9996,303.6839,275.6254,84.4607,-7.9602e-05,-1.043e-05,0.0,0 STARLINK-5583,1 55768U 23028AD  24054.39858866 -.00001043  00000-0 -79602-4 0  9992,2 55768  69.9996 303.6839 0002612 275.6254  84.4607 14.98336073 54894,6950.174,96.107,573.854,570.224,0.0
55768.0,STARLINK-5583,PAYLOAD,2024-02-23 20:46:54,14.98324675,0.000251,69.9996,302.5066,261.1575,98.93,1.4389e-05,7.9e-07,0.0,0 STARLINK-5583,1 55768U 23028AD  24054.86591238  .00000079  00000-0  14389-4 0  9998,2 55768  69.9996 302.5066 0002510 261.1575  98.9300 14.98324675 54959,6950.209,96.107,573.819,570.33,0.0
55768.0,STARLINK-5583,PAYLOAD,2024-02-23 22:23:02,14.9832638,0.000252,69.9996,302.3386,261.4337,98.6536,5.9116e-06,-2.2e-07,0.0,0 STARLINK-5583,1 55768U 23028AD  24054.93267174 -.00000022  00000-0  59116-5 0  9992,2 55768  69.9996 302.3386 0002520 261.4337  98.6536 14.98326380 54977,6950.204,96.107,573.821,570.318,0.0
55768.0,STARLINK-5583,PAYLOAD,2024-02-24 09:35:59,14.98325657,0.0002771,69.9988,301.1605,267.3552,92.729,4.8805e-05,4.89e-06,0.0,0 STARLINK-5583,1 55768U 23028AD  24055.39999169  .00000489  00000-0  48805-4 0  9997,2 55768  69.9988 301.1605 0002771 267.3552  92.7290 14.98325657 55048,6950.206,96.107,573.997,570.145,0.0
55768.0,STARLINK-5583,PAYLOAD,2024-02-24 16:00:31,14.9832794,0.0002904,69.9988,300.4873,267.7665,92.3161,-1.3575e-05,-2.55e-06,0.0,0 STARLINK-5583,1 55768U 23028AD  24055.66703134 -.00000255  00000-0 -13575-4 0  9991,2 55768  69.9988 300.4873 0002904 267.7665  92.3161 14.98327940 55088,6950.199,96.107,574.083,570.046,0.0
55768.0,STARLINK-5583,PAYLOAD,2024-02-25 09:37:59,14.983339,0.0002756,69.999,298.6344,270.5341,89.5502,-4.8127e-05,-6.67e-06,0.0,0 STARLINK-5583,1 55768U 23028AD  24056.40138810 -.00000667  00000-0 -48127-4 0  9995,2 55768  69.9990 298.6344 0002756 270.5341  89.5502 14.98333900 55181,6950.181,96.107,573.961,570.13,0.0
55768.0,STARLINK-5583,PAYLOAD,2024-02-25 22:27:05,14.98318836,0.0002958,69.9991,297.2891,268.1625,91.9196,-6.4542e-05,-8.63e-06,0.0,0 STARLINK-5583,1 55768U 23028AD  24056.93547831 -.00000863  00000-0 -64542-4 0  9997,2 55768  69.9991 297.2891 0002958 268.1625  91.9196 14.98318836 55273,6950.227,96.108,574.148,570.037,0.0
55768.0,STARLINK-5583,PAYLOAD,2024-02-26 01:39:21,14.9831904,0.000298,69.9988,296.9523,268.7985,91.2832,-7.4221e-05,-9.78e-06,0.0,0 STARLINK-5583,1 55768U 23028AD  24057.06899925 -.00000978  00000-0 -74221-4 0  9998,2 55768  69.9988 296.9523 0002980 268.7985  91.2832 14.98319040 55286,6950.227,96.108,574.163,570.021,0.0
55768.0,STARLINK-5583,PAYLOAD,2024-02-26 19:16:49,14.98326555,0.0003128,69.9983,295.1,270.0427,90.0373,3.2995e-07,-8.9e-07,0.0,0 STARLINK-5583,1 55768U 23028AD  24057.80335441 -.00000089  00000-0  32995-6 0  9994,2 55768  69.9983 295.1000 0003128 270.0427  90.0373 14.98326555 55392,6950.204,96.107,574.243,569.895,0.0
55768.0,STARLINK-5583,PAYLOAD,2024-02-26 22:29:05,14.98336433,0.0003193,69.9977,294.7622,268.5062,91.5732,-0.000106,-1.358e-05,0.0,0 STARLINK-5583,1 55768U 23028AD  24057.93687043 -.00001358  00000-0 -10600-3 0  9993,2 55768  69.9977 294.7622 0003193 268.5062  91.5732 14.98336433 55424,6950.173,96.107,574.257,569.819,0.0
55768.0,STARLINK-5583,PAYLOAD,2024-02-27 01:41:21,14.98334878,0.0003178,69.9982,294.4262,269.5966,90.4829,3.1851e-05,2.87e-06,0.0,0 STARLINK-5583,1 55768U 23028AD  24058.07038796  .00000287  00000-0  31851-4 0  9994,2 55768  69.9982 294.4262 0003178 269.5966  90.4829 14.98334878 55431,6950.178,96.107,574.252,569.834,0.0
55768.0,STARLINK-5583,PAYLOAD,2024-02-27 19:18:50,14.9831887,0.0003315,69.998,292.5745,267.2011,92.8768,0.00027343,3.17e-05,0.0,0 STARLINK-5583,1 55768U 23028AD  24058.80475033  .00003170  00000-0  27343-3 0  9998,2 55768  69.9980 292.5745 0003315 267.2011  92.8768 14.98318870 55547,6950.227,96.108,574.396,569.788,0.0
55768.0,STARLINK-5583,PAYLOAD,2024-02-27 22:31:06,14.98328715,0.0003069,69.9981,292.2383,269.6284,90.4524,0.00014966,1.693e-05,0.0,0 STARLINK-5583,1 55768U 23028AD  24058.93826729  .00001693  00000-0  14966-3 0  9999,2 55768  69.9981 292.2383 0003069 269.6284  90.4524 14.98328715 55573,6950.197,96.107,574.195,569.929,0.0
55768.0,STARLINK-5583,PAYLOAD,2024-02-28 01:43:22,14.98329521,0.0003052,69.9981,291.9015,269.5908,90.4902,0.00015191,1.72e-05,0.0,0 STARLINK-5583,1 55768U 23028AD  24059.07178669  .00001720  00000-0  15191-3 0  9990,2 55768  69.9981 291.9015 0003052 269.5908  90.4902 14.98329521 55582,6950.194,96.107,574.181,569.938,0.0
55768.0,STARLINK-5583,PAYLOAD,2024-02-28 08:07:54,14.98327277,0.0003024,69.998,291.2283,268.388,91.6932,7.068e-05,7.5e-06,0.0,0 STARLINK-5583,1 55768U 23028AD  24059.33883024  .00000750  00000-0  70680-4 0  9994,2 55768  69.9980 291.2283 0003024 268.3880  91.6932 14.98327277 55634,6950.201,96.107,574.168,569.965,0.0
55768.0,STARLINK-5583,PAYLOAD,2024-02-28 22:33:07,14.98330104,0.0002839,69.9984,289.7141,266.3725,93.711,-3.4276e-05,-5.02e-06,0.0,0 STARLINK-5583,1 55768U 23028AD  24059.93967170 -.00000502  00000-0 -34276-4 0  9993,2 55768  69.9984 289.7141 0002839 266.3725  93.7110 14.98330104 55726,6950.193,96.107,574.031,570.084,0.0
55768.0,STARLINK-5583,PAYLOAD,2024-02-29 01:45:23,14.98330016,0.0002837,69.9984,289.3774,266.4021,93.6814,-3.449e-05,-5.04e-06,0.0,0 STARLINK-5583,1 55768U 23028AD  24060.07319167 -.00000504  00000-0 -34490-4 0  9997,2 55768  69.9984 289.3774 0002837 266.4021  93.6814 14.98330016 55735,6950.193,96.107,574.03,570.086,0.0
55768.0,STARLINK-5583,PAYLOAD,2024-02-29 08:09:55,14.98331366,0.0002831,69.9984,288.7039,267.8307,92.2528,-3.9301e-05,-5.62e-06,0.0,0 STARLINK-5583,1 55768U 23028AD  24060.34023073 -.00000562  00000-0 -39301-4 0  9995,2 55768  69.9984 288.7039 0002831 267.8307  92.2528 14.98331366 55789,6950.189,96.107,574.021,570.086,0.0
55768.0,STARLINK-5583,PAYLOAD,2024-02-29 22:35:08,14.98334792,0.0002878,69.9983,287.1884,269.8505,90.2325,-1.2511e-05,-2.42e-06,0.0,0 STARLINK-5583,1 55768U 23028AD  24060.94106621 -.00000242  00000-0 -12511-4 0  9991,2 55768  69.9983 287.1884 0002878 269.8505  90.2325 14.98334792 55871,6950.178,96.107,574.043,570.043,0.0
55768.0,STARLINK-5583,PAYLOAD,2024-03-01 01:47:24,14.98336468,0.0002872,69.9983,286.8517,269.9489,90.134,6.7122e-06,-1.3e-07,0.0,0 STARLINK-5583,1 55768U 23028AD  24061.07458419 -.00000013  00000-0  67122-5 0  9995,2 55768  69.9983 286.8517 0002872 269.9489  90.1340 14.98336468 55885,6950.173,96.107,574.034,570.042,0.0
55768.0,STARLINK-5583,PAYLOAD,2024-03-01 08:11:56,14.98332232,0.0002829,69.9983,286.1784,269.2316,90.8519,9.2378e-06,1.7e-07,0.0,0 STARLINK-5583,1 55768U 23028AD  24061.34162616  .00000017  00000-0  92378-5 0  9990,2 55768  69.9983 286.1784 0002829 269.2316  90.8519 14.98332232 55934,6950.186,96.107,574.017,570.085,0.0
55768.0,STARLINK-5583,PAYLOAD,2024-03-01 19:24:52,14.98329407,0.0002867,69.9981,284.9995,268.7156,91.3675,2.8377e-05,2.46e-06,0.0,0 STARLINK-5583,1 55768U 23028AD  24061.80894661  .00000246  00000-0  28377-4 0  9994,2 55768  69.9981 284.9995 0002867 268.7156  91.3675 14.98329407 55995,6950.195,96.107,574.052,570.067,0.0
55768.0,STARLINK-5583,PAYLOAD,2024-03-01 21:01:01,14.98329929,0.0002867,69.998,284.8309,268.4006,91.6825,2.4498e-05,1.99e-06,0.0,0 STARLINK-5583,1 55768U 23028AD  24061.87570632  .00000199  00000-0  24498-4 0  9997,2 55768  69.9980 284.8309 0002867 268.4006  91.6825 14.98329929 56016,6950.193,96.107,574.051,570.065,0.0
55768.0,STARLINK-5583,PAYLOAD,2024-03-02 00:13:17,14.98331519,0.0002847,69.9979,284.4942,268.3752,91.708,4.1211e-05,3.99e-06,0.0,0 STARLINK-5583,1 55768U 23028AD  24062.00922464  .00000399  00000-0  41211-4 0  9991,2 55768  69.9979 284.4942 0002847 268.3752  91.7080 14.98331519 56032,6950.188,96.107,574.032,570.074,0.0
55768.0,STARLINK-5583,PAYLOAD,2024-03-02 19:26:54,14.9832446,0.0002854,69.9976,282.4732,270.2047,89.8785,-7.4575e-05,-9.83e-06,0.0,0 STARLINK-5583,1 55768U 23028AD  24062.81035271 -.00000983  00000-0 -74575-4 0  9991,2 55768  69.9976 282.4732 0002854 270.2047  89.8785 14.98324460 56140,6950.21,96.107,574.059,570.091,0.0
55768.0,STARLINK-5583,PAYLOAD,2024-03-02 21:03:02,14.98323499,0.0002811,69.9977,282.305,268.5958,91.4879,-7.8903e-05,-1.034e-05,0.0,0 STARLINK-5583,1 55768U 23028AD  24062.87711362 -.00001034  00000-0 -78903-4 0  9996,2 55768  69.9977 282.3050 0002811 268.5958  91.4879 14.98323499 56163,6950.213,96.107,574.032,570.124,0.0
